INTELSAT 21 (IS-21)     
1 38749U 12045A   26163.29643411 -.00000269  00000+0  00000+0 0  9997
2 38749   0.0166 294.6455 0001299 159.8497 214.8527  1.00272048 50474
INTELSAT 23 (IS-23)     
1 38867U 12057A   26163.30182699 -.00000269  00000+0  00000+0 0  9999
2 38867   0.0116 314.1258 0000085 230.1775 131.9787  1.00267954 49906
FM-6                    
1 39360U 13058A   26163.24182465  .00000001  00000+0  00000+0 0  9997
2 39360   0.0128  42.5403 0001561 122.4339  66.3276  1.00264370 46024
INTELSAT 30 (IS-30)     
1 40271U 14062A   26163.13100403 -.00000136  00000+0  00000+0 0  9996
2 40271   0.0295  52.1010 0001222 325.7896 194.6934  1.00277862  6744
DIRECTV 14              
1 40333U 14078B   26163.24511801 -.00000110  00000+0  00000+0 0  9994
2 40333   0.0105 343.6015 0000292 288.0454 337.9391  1.00268691 41998
DIRECTV 15              
1 40663U 15026A   26163.26855998 -.00000087  00000+0  00000+0 0  9997
2 40663   0.0165  20.2105 0000221 275.1931 319.0066  1.00269640 40418
SKY MEXICO-1            
1 40664U 15026B   26163.17785791  .00000000  00000+0  00000+0 0  9995
2 40664   0.0264 342.7253 0001966 121.6679 141.3444  1.00270350 40401
INTELSAT 34 (IS-34)     
1 40874U 15039A   26163.25379266 -.00000270  00000+0  00000+0 0  9997
2 40874   0.0084 324.0006 0000524  57.2854 275.1835  1.00279262 39589
INTELSAT 31 (IS-31)     
1 41581U 16035A   26163.24598468 -.00000135  00000+0  00000+0 0  9996
2 41581   0.0157 271.4016 0001128 321.9404  20.7444  1.00270944 36636
INTELSAT 32E (IS-32E)   
1 41945U 17007B   26163.25621934 -.00000254  00000+0  00000+0 0  9998
2 41945   0.0164 324.8602 0000817 335.3343   9.4550  1.00267966 34176
INTELSAT 35E (IS-35E)   
1 42818U 17041A   26163.27475891 -.00000223  00000+0  00000+0 0  9993
2 42818   0.0012   4.8318 0001546  71.3906 248.8223  1.00270153 32760
INTELSAT 37E (IS-37E)   
1 42950U 17059A   26163.26124603 -.00000125  00000+0  00000+0 0  9991
2 42950   0.0159  27.6250 0002385  71.5372 237.4854  1.00272904 32016
HORIZONS-3E             
1 43633U 18074B   26162.65668676 -.00000014  00000+0  00000+0 0  9990
2 43633   0.0168 153.8582 0000942 115.9640  35.5804  1.00270916 28280
AT&T T-16               
1 44333U 19034A   26162.95968035 -.00000099  00000+0  00000+0 0  9993
2 44333   0.0246  66.2385 0000732 224.2359 214.4525  1.00270824 25587
INTELSAT 39 (IS-39)     
1 44476U 19049B   26162.74781906  .00000049  00000+0  00000+0 0  9998
2 44476   0.0022 349.9949 0000686 308.6407 292.6211  1.00273687 25077
GALAXY 30 (G-30)        
1 46114U 20056C   26163.24009132  .00000052  00000+0  00000+0 0  9993
2 46114   0.0155 322.5863 0002160 119.8914 139.5351  1.00269848 21244
GALAXY 33 (G-33)        
1 54026U 22128A   26163.26939793  .00000094  00000+0  00000+0 0  9999
2 54026   0.0069 316.9641 0001656 128.1667 139.4650  1.00270428 13694
GALAXY 34 (G-34)        
1 54027U 22128B   26163.02534867  .00000000  00000+0  00000+0 0  9994
2 54027   0.0229 347.9398 0001389 119.9079  32.6400  1.00270187 13862
GALAXY 31 (G-31)        
1 54243U 22153A   26163.23376619  .00000000  00000+0  00000+0 0  9994
2 54243   0.0184 343.3436 0000989  91.7257 148.6451  1.00269692  7085
GALAXY 32 (G-32)        
1 54244U 22153B   26163.24676468 -.00000159  00000+0  00000+0 0  9997
2 54244   0.0110  12.7086 0002043  20.7672 224.9442  1.00271343 13091
GALAXY 35 (G-35)        
1 54741U 22170A   26163.23898369 -.00000147  00000+0  00000+0 0  9990
2 54741   0.0161 302.5534 0001864 141.0978 169.8572  1.00270688 12847
GALAXY 36 (G-36)        
1 54742U 22170B   26163.24719801 -.00000170  00000+0  00000+0 0  9991
2 54742   0.0402 131.4856 0002546 310.8910 178.2021  1.00271601 12728
GALAXY 37 (G-37)        
1 57493U 23112A   26163.23965799  .00000064  00000+0  00000+0 0  9993
2 57493   0.0114  32.2351 0001799  46.2990 141.3177  1.00270565 10492
