OBJECT_NAME,OBJECT_ID,EPOCH,MEAN_MOTION,ECCENTRICITY,INCLINATION,RA_OF_ASC_NODE,ARG_OF_PERICENTER,MEAN_ANOMALY,EPHEMERIS_TYPE,CLASSIFICATION_TYPE,NORAD_CAT_ID,ELEMENT_SET_NO,REV_AT_EPOCH,BSTAR,MEAN_MOTION_DOT,MEAN_MOTION_DDOT
INTELSAT 21 (IS-21),2012-045A,2026-06-12T07:06:51.907104,1.00272048,.00012992,0.0166,294.6455,159.8497,214.8527,0,U,38749,999,5047,0,-.269E-5,0
INTELSAT 23 (IS-23),2012-057A,2026-06-12T07:14:37.851936,1.00267954,.00000858,0.0116,314.1258,230.1775,131.9787,0,U,38867,999,4990,0,-.269E-5,0
FM-6,2013-058A,2026-06-12T05:48:13.649760,1.00264370,.00015616,0.0128,42.5403,122.4339,66.3276,0,U,39360,999,4602,0,.1E-7,0
INTELSAT 30 (IS-30),2014-062A,2026-06-12T03:08:38.748192,1.00277862,.00012225,0.0295,52.1010,325.7896,194.6934,0,U,40271,999,674,0,-.136E-5,0
DIRECTV 14,2014-078B,2026-06-12T05:52:58.196064,1.00268691,.0000292,0.0105,343.6015,288.0454,337.9391,0,U,40333,999,4199,0,-.11E-5,0
DIRECTV 15,2015-026A,2026-06-12T06:26:43.582272,1.00269640,.00002212,0.0165,20.2105,275.1931,319.0066,0,U,40663,999,4041,0,-.87E-6,0
SKY MEXICO-1,2015-026B,2026-06-12T04:16:06.923424,1.00270350,.00019664,0.0264,342.7253,121.6679,141.3444,0,U,40664,999,4040,0,0,0
INTELSAT 34 (IS-34),2015-039A,2026-06-12T06:05:27.685824,1.00279262,.00005248,0.0084,324.0006,57.2854,275.1835,0,U,40874,999,3958,0,-.27E-5,0
INTELSAT 31 (IS-31),2016-035A,2026-06-12T05:54:13.076352,1.00270944,.00011289,0.0157,271.4016,321.9404,20.7444,0,U,41581,999,3663,0,-.135E-5,0
INTELSAT 32E (IS-32E),2017-007B,2026-06-12T06:08:57.350976,1.00267966,.00008175,0.0164,324.8602,335.3343,9.4550,0,U,41945,999,3417,0,-.254E-5,0
INTELSAT 35E (IS-35E),2017-041A,2026-06-12T06:35:39.169824,1.00270153,.00015461,0.0012,4.8318,71.3906,248.8223,0,U,42818,999,3276,0,-.223E-5,0
INTELSAT 37E (IS-37E),2017-059A,2026-06-12T06:16:11.656992,1.00272904,.00023852,0.0159,27.6250,71.5372,237.4854,0,U,42950,999,3201,0,-.125E-5,0
HORIZONS-3E,2018-074B,2026-06-11T15:45:37.736064,1.00270916,.00009425,0.0168,153.8582,115.9640,35.5804,0,U,43633,999,2828,0,-.14E-6,0
AT&T T-16,2019-034A,2026-06-11T23:01:56.382240,1.00270824,.00007326,0.0246,66.2385,224.2359,214.4525,0,U,44333,999,2558,0,-.99E-6,0
INTELSAT 39 (IS-39),2019-049B,2026-06-11T17:56:51.566784,1.00273687,.00006866,0.0022,349.9949,308.6407,292.6211,0,U,44476,999,2507,0,.49E-6,0
GALAXY 30 (G-30),2020-056C,2026-06-12T05:45:43.890048,1.00269848,.00021608,0.0155,322.5863,119.8914,139.5351,0,U,46114,999,2124,0,.52E-6,0
GALAXY 33 (G-33),2022-128A,2026-06-12T06:27:55.981152,1.00270428,.00016564,0.0069,316.9641,128.1667,139.4650,0,U,54026,999,1369,0,.94E-6,0
GALAXY 34 (G-34),2022-128B,2026-06-12T00:36:30.125088,1.00270187,.00013895,0.0229,347.9398,119.9079,32.6400,0,U,54027,999,1386,0,0,0
GALAXY 31 (G-31),2022-153A,2026-06-12T05:36:37.398816,1.00269692,.00009899,0.0184,343.3436,91.7257,148.6451,0,U,54243,999,708,0,0,0
GALAXY 32 (G-32),2022-153B,2026-06-12T05:55:20.468352,1.00271343,.00020431,0.0110,12.7086,20.7672,224.9442,0,U,54244,999,1309,0,-.159E-5,0
GALAXY 35 (G-35),2022-170A,2026-06-12T05:44:08.190816,1.00270688,.00018649,0.0161,302.5534,141.0978,169.8572,0,U,54741,999,1284,0,-.147E-5,0
GALAXY 36 (G-36),2022-170B,2026-06-12T05:55:57.908064,1.00271601,.00025466,0.0402,131.4856,310.8910,178.2021,0,U,54742,999,1272,0,-.17E-5,0
GALAXY 37 (G-37),2023-112A,2026-06-12T05:45:06.450336,1.00270565,.00017998,0.0114,32.2351,46.2990,141.3177,0,U,57493,999,1049,0,.64E-6,0
